CCSDS_OMM_VERS = 2.0
CREATION_DATE  = 
ORIGINATOR     = 

OBJECT_NAME    = STARLINK-36864
OBJECT_ID      = 2026-041F
CENTER_NAME    = EARTH
REF_FRAME      = TEME
TIME_SYSTEM    = UTC
MEAN_ELEMENT_THEORY = SGP/SGP4

EPOCH          = 2026-03-27T03:35:11.603040
MEAN_MOTION    = 15.75398053
ECCENTRICITY   = .00027302
INCLINATION    = 53.1601
RA_OF_ASC_NODE = 335.1031
ARG_OF_PERICENTER = 326.0005
MEAN_ANOMALY   = 34.0840

EPHEMERIS_TYPE = 0
CLASSIFICATION_TYPE = U
NORAD_CAT_ID   = 68045
ELEMENT_SET_NO = 999
REV_AT_EPOCH   = 397
BSTAR          = .20775443E-2
MEAN_MOTION_DOT = .33299E-2
MEAN_MOTION_DDOT = 0

CCSDS_OMM_VERS = 2.0
CREATION_DATE  = 
ORIGINATOR     = 

OBJECT_NAME    = STARLINK-36321
OBJECT_ID      = 2026-041G
CENTER_NAME    = EARTH
REF_FRAME      = TEME
TIME_SYSTEM    = UTC
MEAN_ELEMENT_THEORY = SGP/SGP4

EPOCH          = 2026-03-27T02:55:58.887840
MEAN_MOTION    = 15.75319764
ECCENTRICITY   = .00007456
INCLINATION    = 53.1588
RA_OF_ASC_NODE = 334.9219
ARG_OF_PERICENTER = 121.6311
MEAN_ANOMALY   = 238.4782

EPHEMERIS_TYPE = 0
CLASSIFICATION_TYPE = U
NORAD_CAT_ID   = 68046
ELEMENT_SET_NO = 999
REV_AT_EPOCH   = 397
BSTAR          = .1408332E-2
MEAN_MOTION_DOT = .221777E-2
MEAN_MOTION_DDOT = 0

CCSDS_OMM_VERS = 2.0
CREATION_DATE  = 
ORIGINATOR     = 

OBJECT_NAME    = STARLINK-36181
OBJECT_ID      = 2026-041H
CENTER_NAME    = EARTH
REF_FRAME      = TEME
TIME_SYSTEM    = UTC
MEAN_ELEMENT_THEORY = SGP/SGP4

EPOCH          = 2026-03-27T04:02:57.539328
MEAN_MOTION    = 15.80037926
ECCENTRICITY   = .00007604
INCLINATION    = 53.1584
RA_OF_ASC_NODE = 334.4926
ARG_OF_PERICENTER = 16.0888
MEAN_ANOMALY   = 344.0158

EPHEMERIS_TYPE = 0
CLASSIFICATION_TYPE = U
NORAD_CAT_ID   = 68047
ELEMENT_SET_NO = 999
REV_AT_EPOCH   = 398
BSTAR          = -.21308384E-2
MEAN_MOTION_DOT = -.387721E-2
MEAN_MOTION_DDOT = 0

CCSDS_OMM_VERS = 2.0
CREATION_DATE  = 
ORIGINATOR     = 

OBJECT_NAME    = STARLINK-36318
OBJECT_ID      = 2026-041J
CENTER_NAME    = EARTH
REF_FRAME      = TEME
TIME_SYSTEM    = UTC
MEAN_ELEMENT_THEORY = SGP/SGP4

EPOCH          = 2026-03-26T22:55:02.992800
MEAN_MOTION    = 15.75302675
ECCENTRICITY   = .0000945
INCLINATION    = 53.1605
RA_OF_ASC_NODE = 336.0220
ARG_OF_PERICENTER = 47.1628
MEAN_ANOMALY   = 312.9471

EPHEMERIS_TYPE = 0
CLASSIFICATION_TYPE = U
NORAD_CAT_ID   = 68048
ELEMENT_SET_NO = 999
REV_AT_EPOCH   = 394
BSTAR          = .10931E-2
MEAN_MOTION_DOT = .170825E-2
MEAN_MOTION_DDOT = 0

CCSDS_OMM_VERS = 2.0
CREATION_DATE  = 
ORIGINATOR     = 

OBJECT_NAME    = STARLINK-36885
OBJECT_ID      = 2026-041K
CENTER_NAME    = EARTH
REF_FRAME      = TEME
TIME_SYSTEM    = UTC
MEAN_ELEMENT_THEORY = SGP/SGP4

EPOCH          = 2026-03-27T05:00:01.566144
MEAN_MOTION    = 15.75315762
ECCENTRICITY   = .00013347
INCLINATION    = 53.1609
RA_OF_ASC_NODE = 334.7562
ARG_OF_PERICENTER = 63.8341
MEAN_ANOMALY   = 296.2817

EPHEMERIS_TYPE = 0
CLASSIFICATION_TYPE = U
NORAD_CAT_ID   = 68049
ELEMENT_SET_NO = 999
REV_AT_EPOCH   = 398
BSTAR          = .15898739E-2
MEAN_MOTION_DOT = .251286E-2
MEAN_MOTION_DDOT = 0

CCSDS_OMM_VERS = 2.0
CREATION_DATE  = 
ORIGINATOR     = 

OBJECT_NAME    = STARLINK-36945
OBJECT_ID      = 2026-041L
CENTER_NAME    = EARTH
REF_FRAME      = TEME
TIME_SYSTEM    = UTC
MEAN_ELEMENT_THEORY = SGP/SGP4

EPOCH          = 2026-03-27T06:00:02.999808
MEAN_MOTION    = 15.75267217
ECCENTRICITY   = .00010261
INCLINATION    = 53.1592
RA_OF_ASC_NODE = 334.1325
ARG_OF_PERICENTER = 91.0950
MEAN_ANOMALY   = 349.6942

EPHEMERIS_TYPE = 0
CLASSIFICATION_TYPE = U
NORAD_CAT_ID   = 68050
ELEMENT_SET_NO = 999
REV_AT_EPOCH   = 520
BSTAR          = -.62477332E-3
MEAN_MOTION_DOT = -.95452E-3
MEAN_MOTION_DDOT = 0

CCSDS_OMM_VERS = 2.0
CREATION_DATE  = 
ORIGINATOR     = 

OBJECT_NAME    = STARLINK-35911
OBJECT_ID      = 2026-041M
CENTER_NAME    = EARTH
REF_FRAME      = TEME
TIME_SYSTEM    = UTC
MEAN_ELEMENT_THEORY = SGP/SGP4

EPOCH          = 2026-03-27T06:00:02.999808
MEAN_MOTION    = 15.75219816
ECCENTRICITY   = .00009496
INCLINATION    = 53.1595
RA_OF_ASC_NODE = 334.0799
ARG_OF_PERICENTER = 103.1024
MEAN_ANOMALY   = 3.4278

EPHEMERIS_TYPE = 0
CLASSIFICATION_TYPE = U
NORAD_CAT_ID   = 68051
ELEMENT_SET_NO = 999
REV_AT_EPOCH   = 516
BSTAR          = .30893627E-3
MEAN_MOTION_DOT = .4694E-3
MEAN_MOTION_DDOT = 0

CCSDS_OMM_VERS = 2.0
CREATION_DATE  = 
ORIGINATOR     = 

OBJECT_NAME    = STARLINK-35808
OBJECT_ID      = 2026-041N
CENTER_NAME    = EARTH
REF_FRAME      = TEME
TIME_SYSTEM    = UTC
MEAN_ELEMENT_THEORY = SGP/SGP4

EPOCH          = 2026-03-26T23:53:17.588544
MEAN_MOTION    = 15.79241341
ECCENTRICITY   = .0022599
INCLINATION    = 53.1592
RA_OF_ASC_NODE = 335.5521
ARG_OF_PERICENTER = 322.8561
MEAN_ANOMALY   = 37.0897

EPHEMERIS_TYPE = 0
CLASSIFICATION_TYPE = U
NORAD_CAT_ID   = 68052
ELEMENT_SET_NO = 999
REV_AT_EPOCH   = 395
BSTAR          = .4038662E-1
MEAN_MOTION_DOT = .9187212E-1
MEAN_MOTION_DDOT = 0

CCSDS_OMM_VERS = 2.0
CREATION_DATE  = 
ORIGINATOR     = 

OBJECT_NAME    = STARLINK-36919
OBJECT_ID      = 2026-041P
CENTER_NAME    = EARTH
REF_FRAME      = TEME
TIME_SYSTEM    = UTC
MEAN_ELEMENT_THEORY = SGP/SGP4

EPOCH          = 2026-03-27T06:00:02.999808
MEAN_MOTION    = 15.77674092
ECCENTRICITY   = .00007767
INCLINATION    = 53.1593
RA_OF_ASC_NODE = 334.0318
ARG_OF_PERICENTER = 74.0461
MEAN_ANOMALY   = 55.6349

EPHEMERIS_TYPE = 0
CLASSIFICATION_TYPE = U
NORAD_CAT_ID   = 68053
ELEMENT_SET_NO = 999
REV_AT_EPOCH   = 520
BSTAR          = -.12163236E-1
MEAN_MOTION_DOT = -.1820428E-1
MEAN_MOTION_DDOT = 0

CCSDS_OMM_VERS = 2.0
CREATION_DATE  = 
ORIGINATOR     = 

OBJECT_NAME    = STARLINK-36924
OBJECT_ID      = 2026-041Q
CENTER_NAME    = EARTH
REF_FRAME      = TEME
TIME_SYSTEM    = UTC
MEAN_ELEMENT_THEORY = SGP/SGP4

EPOCH          = 2026-03-27T03:22:36.215616
MEAN_MOTION    = 15.75277726
ECCENTRICITY   = .00012357
INCLINATION    = 53.1603
RA_OF_ASC_NODE = 335.0440
ARG_OF_PERICENTER = 140.9055
MEAN_ANOMALY   = 219.2055

EPHEMERIS_TYPE = 0
CLASSIFICATION_TYPE = U
NORAD_CAT_ID   = 68054
ELEMENT_SET_NO = 999
REV_AT_EPOCH   = 397
BSTAR          = .12663152E-2
MEAN_MOTION_DOT = .198426E-2
MEAN_MOTION_DDOT = 0

CCSDS_OMM_VERS = 2.0
CREATION_DATE  = 
ORIGINATOR     = 

OBJECT_NAME    = STARLINK-35998
OBJECT_ID      = 2026-041R
CENTER_NAME    = EARTH
REF_FRAME      = TEME
TIME_SYSTEM    = UTC
MEAN_ELEMENT_THEORY = SGP/SGP4

EPOCH          = 2026-03-27T04:20:48.606432
MEAN_MOTION    = 15.75304753
ECCENTRICITY   = .00008946
INCLINATION    = 53.1589
RA_OF_ASC_NODE = 334.5747
ARG_OF_PERICENTER = 85.5605
MEAN_ANOMALY   = 274.5518

EPHEMERIS_TYPE = 0
CLASSIFICATION_TYPE = U
NORAD_CAT_ID   = 68055
ELEMENT_SET_NO = 999
REV_AT_EPOCH   = 398
BSTAR          = .16745036E-2
MEAN_MOTION_DOT = .265008E-2
MEAN_MOTION_DDOT = 0

CCSDS_OMM_VERS = 2.0
CREATION_DATE  = 
ORIGINATOR     = 

OBJECT_NAME    = STARLINK-36845
OBJECT_ID      = 2026-041S
CENTER_NAME    = EARTH
REF_FRAME      = TEME
TIME_SYSTEM    = UTC
MEAN_ELEMENT_THEORY = SGP/SGP4

EPOCH          = 2026-03-27T06:00:02.999808
MEAN_MOTION    = 15.75261307
ECCENTRICITY   = .00007596
INCLINATION    = 53.1591
RA_OF_ASC_NODE = 334.1810
ARG_OF_PERICENTER = 74.8308
MEAN_ANOMALY   = 342.0675

EPHEMERIS_TYPE = 0
CLASSIFICATION_TYPE = U
NORAD_CAT_ID   = 68056
ELEMENT_SET_NO = 999
REV_AT_EPOCH   = 520
BSTAR          = -.44955286E-3
MEAN_MOTION_DOT = -.69054E-3
MEAN_MOTION_DDOT = 0

