STARLINK-36864          
1 68045U 26041F   26086.14943985  .00332990  00000+0  20775-2 0  9999
2 68045  53.1601 335.1031 0002730 326.0005  34.0840 15.75398053  3979
STARLINK-36321          
1 68046U 26041G   26086.12220935  .00221777  00000+0  14083-2 0  9996
2 68046  53.1588 334.9219 0000745 121.6311 238.4782 15.75319764  3979
STARLINK-36181          
1 68047U 26041H   26086.16872152 -.00387721  00000+0 -21308-2 0  9997
2 68047  53.1584 334.4926 0000760  16.0888 344.0158 15.80037926  3984
STARLINK-36318          
1 68048U 26041J   26085.95489575  .00170825  00000+0  10931-2 0  9990
2 68048  53.1605 336.0220 0000945  47.1628 312.9471 15.75302675  3944
STARLINK-36885          
1 68049U 26041K   26086.20835146  .00251286  00000+0  15899-2 0  9998
2 68049  53.1609 334.7562 0001334  63.8341 296.2817 15.75315762  3986
STARLINK-36945          
1 68050U 26041L   26086.25003472 -.00095452  00000+0 -62477-3 0  9992
2 68050  53.1592 334.1325 0001026  91.0950 349.6942 15.75267217  5207
STARLINK-35911          
1 68051U 26041M   26086.25003472  .00046940  00000+0  30894-3 0  9997
2 68051  53.1595 334.0799 0000949 103.1024   3.4278 15.75219816  5169
STARLINK-35808          
1 68052U 26041N   26085.99534246  .09187212  00000+0  40387-1 0  9999
2 68052  53.1592 335.5521 0022599 322.8561  37.0897 15.79241341  3954
STARLINK-36919          
1 68053U 26041P   26086.25003472 -.01820428  00000+0 -12163-1 0  9990
2 68053  53.1593 334.0318 0000776  74.0461  55.6349 15.77674092  5201
STARLINK-36924          
1 68054U 26041Q   26086.14069694  .00198426  00000+0  12663-2 0  9996
2 68054  53.1603 335.0440 0001235 140.9055 219.2055 15.75277726  3979
STARLINK-35998          
1 68055U 26041R   26086.18111813  .00265008  00000+0  16745-2 0  9998
2 68055  53.1589 334.5747 0000894  85.5605 274.5518 15.75304753  3982
STARLINK-36845          
1 68056U 26041S   26086.25003472 -.00069054  00000+0 -44955-3 0  9998
2 68056  53.1591 334.1810 0000759  74.8308 342.0675 15.75261307  5203
